"title","link","phone","address","Latitude","Longitude","founded","deanery","parishWebsite"
"All Saints (St. Peters)","https://www.archstl.org/parish-directory/all-saints-st-peters","636.397.1440","7 McMenamy Rd., St. Peters, MO 63376-1590",38.79654,-90.629133,1823,"St. Charles","http://www.allsaints-stpeters.org"
"All Saints (University City)","https://www.archstl.org/parish-directory/all-saints-university-city","314.721.6403","6403 Clemens Ave., St. Louis, MO 63130-3497",38.65867,-90.303102,1901,"Mid County","http://allsaintsucitymo.org/"
"All Souls (Overland)","https://www.archstl.org/parish-directory/all-souls-overland","314.427.0442","9550 Tennyson Ave., St. Louis, MO 63114-3399",38.70421,-90.366659,1912,"North County","http://allsoulsparish.com"
"Annunciation (Webster Groves)","https://www.archstl.org/parish-directory/annunciation-webster-groves","314.962.5955","12 W. Glendale Rd., Webster Groves, MO 63119-4097",38.57637,-90.358973,1950,"Mid County","http://www.goannunciation.com"
"Annunziata, Church of the (Ladue)","https://www.archstl.org/parish-directory/annunziata-church-of-the-ladue","314.993.4422","9305 Clayton Rd., St. Louis, MO 63124-1692",38.64243,-90.373322,1929,"Mid County","http://www.annunziata.org"
"Ascension (Chesterfield)","https://www.archstl.org/parish-directory/ascension-chesterfield","636.532.3304","230 Santa Maria Dr., Chesterfield, MO 63005-1600",38.661176,-90.578637,1923,"West County","http://www.ascensionchesterfield.org"
"Assumption (Mattese)","https://www.archstl.org/parish-directory/assumption-mattese","314.487.7970","4725 Mattis Rd., St. Louis, MO 63128-2821",38.5009,-90.361605,1839,"South County","http://www.assumptionstl.org/"
"Assumption (New Haven)","https://www.archstl.org/parish-directory/assumption-new-haven","573.237.3372","603 Miller St., New Haven, MO 63068-1116",38.6088,-91.215912,1858,"Washington",
"Assumption (O'Fallon)","https://www.archstl.org/parish-directory/assumption-ofallon","636.240.3721","403 N. Main St., O'Fallon, MO 63366-2205",38.81428,-90.699943,1871,"St. Charles","http://www.assumptionbvm.org"
"Basilica of St. Louis, King of France","https://www.archstl.org/parish-directory/basilica-of-st-louis-king-of-france","314.231.3250","209 Walnut St., St. Louis, MO 63102-2499",38.62402,-90.188117,1770,"South City","http://www.oldcathedralstl.org/"
"Blessed Teresa of Calcutta (Ferguson)","https://www.archstl.org/parish-directory/blessed-teresa-of-calcutta-ferguson","314.524.0500","120 N. Elizabeth Ave, St. Louis, MO 63135-1346",38.7489,-90.29938,2005,"North County","http://www.btcparish.org/"
"Cathedral Basilica of Saint Louis","https://www.archstl.org/parish-directory/cathedral-basilica-of-saint-louis","314.373.8200","4431 Lindell Blvd., St. Louis, MO 63108-2496",38.64195,-90.255449,1896,"South City","http://cathedralstl.org"
"Christ the King (University City)","https://www.archstl.org/parish-directory/christ-the-king-university-city","314.721.8737","7316 Balson Ave., St. Louis, MO 63130-2999",38.66384,-90.325704,1927,"Mid County","http://www.ctkstl.com/"
"Christ the Savior (Brewer)","https://www.archstl.org/parish-directory/christ-the-savior-brewer","573.547.4300","57 Shady Ln., Perryville, MO 63775-7386",37.78088,-89.926577,1907,"Ste. Genevieve","http://www.svdepaul.org/Christ-The-Savior/Christ-the-Savior-Home/"
"Christ, Prince of Peace (Manchester)","https://www.archstl.org/parish-directory/christ-prince-of-peace-manchester","636.391.1307","415 Weidman Rd., Manchester, MO 63011-4431",38.59957,-90.492955,1971,"West County","http://www.christprinceofpeace.com"
"Cur√© of Ars (Shrewsbury)","https://www.archstl.org/parish-directory/cur-of-ars-shrewsbury","314.962.5883","670 S. Laclede Station Rd., St. Louis, MO 63119-4910",38.57756,-90.338276,1966,"Mid County","http://cureofarsparish.org"
"Epiphany of Our Lord (St. Louis)","https://www.archstl.org/parish-directory/epiphany-of-our-lord-st-louis","314.781.1199","6596 Smiley Ave., St. Louis, MO 63139-2487",38.6069,-90.301362,1911,"South City","http://www.epiphanystl.org"
"Good Shepherd, Church of the (Hillsboro)","https://www.archstl.org/parish-directory/good-shepherd-church-of-the-hillsboro","636.789.3356","703 Third St., Hillsboro, MO 63050-4342",38.23272,-90.566676,1934,"Festus","http://www.mygoodshepherd.com/"
"Holy Family (Port Hudson)","https://www.archstl.org/parish-directory/holy-family-port-hudson","573.459.6441","124 Holy Family Church Rd., New Haven, MO 63068-2664",38.580008,-90.264617,1875,"Washington","http://www.holyfamilyporthudson.com"
"Holy Infant (Ballwin)","https://www.archstl.org/parish-directory/holy-infant-ballwin","636.227.7440","627 Dennison Dr., Ballwin, MO 63021-4898",38.58356,-90.556206,1954,"West County","http://www.holyinfantballwin.org"
"Holy Martyrs of Japan, Church of the (Japan)","https://www.archstl.org/parish-directory/holy-martyrs-of-japan-church-of-the-japan","573.627.3378","8244 Highway AE, Sullivan, MO 63080-3229",38.237442,-91.323708,1879,"Washington",
"Holy Name of Jesus (Bissell Hills)","https://www.archstl.org/parish-directory/holy-name-of-jesus-bissell-hills","314.868.2310","10235 Ashbrook Dr., St. Louis, MO 63137-1598",38.75623,-90.229993,2005,"North County","http://holynamestlouis.org/"
"Holy Redeemer (Webster Groves)","https://www.archstl.org/parish-directory/holy-redeemer-webster-groves","314.962.0038","17 Joy Ave., St. Louis, MO 63119-2599",38.59212,-90.347693,1886,"Mid County","http://www.holyr.org/"
"Holy Rosary (Warrenton)","https://www.archstl.org/parish-directory/holy-rosary-warrenton","636.456.3698","724 E. Booneslick Rd., Warrenton, MO 63383-2216",38.81179,-91.137446,1865,"Washington","http://www.holyrosarywm.com"
"Holy Spirit (Maryland Heights)","https://www.archstl.org/parish-directory/holy-spirit-maryland-heights","314.739.0230","3130 Parkwood Ln., Maryland Heights, MO 63043-1396",38.73409,-90.434368,2004,"North County","http://www.holyspiritstl.org/"
"Immacolata (Richmond Heights)","https://www.archstl.org/parish-directory/immacolata-richmond-heights","314.991.5700","8900 Clayton Rd., St. Louis, MO 63117-1093",38.6392,-90.351569,1945,"Mid County","http://www.immacolata.org"
"Immaculate Conception (Arnold)","https://www.archstl.org/parish-directory/immaculate-conception-arnold","636.321.0002","2300 Church Rd., Arnold, MO 63010-2110",38.43428,-90.38104,1840,"Festus","http://www.icarnold.com/"
"Immaculate Conception (Augusta)","https://www.archstl.org/parish-directory/immaculate-conception-augusta","636.482.4455","5912 S. Highway 94, Augusta, MO 63332-1604",38.58017,-90.895723,1851,"Washington","http://www.svdutzow.org"
"Immaculate Conception (Dardenne Prairie)","https://www.archstl.org/parish-directory/immaculate-conception-dardenne-prairie","636.561.6611","7701 Town Square Ave., Dardenne Prairie, MO 63368-6702",38.766042,-90.756419,1880,"St. Charles","http://www.icdparish.org/"
"Immaculate Conception (Maplewood)","https://www.archstl.org/parish-directory/immaculate-conception-maplewood","314.645.3307","2934 Marshall Ave., St. Louis, MO 63143-3299",38.61134,-90.316572,1904,"Mid County","http://icparish.wordpress.com"
"Immaculate Conception (Old Monroe)","https://www.archstl.org/parish-directory/immaculate-conception-old-monroe","636.661.5002","110 Maryknoll Rd., Old Monroe, MO 63369-2329",38.93597,-90.779282,1867,"St. Charles","http://www.icomparish.org"
"Immaculate Conception (Park Hills)","https://www.archstl.org/parish-directory/immaculate-conception-park-hills","573.431.2427","1020 W. Main St., P.O. Box 66, Park Hills, MO 63601-0066",37.85848,-90.53228,1903,"Ste. Genevieve","http://www.icsja.org/"
"Immaculate Conception (Union)","https://www.archstl.org/parish-directory/immaculate-conception-union","636.583.5144","100 N. Washington Ave., Union, MO 63084-1692",38.44584,-91.008656,1866,"Washington","http://www.immaculatecunion.org"
"Immaculate Heart of Mary (New Melle)","https://www.archstl.org/parish-directory/immaculate-heart-of-mary-new-melle","636.398.5270","8 W. Highway D, P.O. Box 100, New Melle, MO 63365-0100",38.7096,-90.881027,1945,"St. Charles","http://www.ihm-newmelle.org"
"Immaculate Heart of Mary (St. Louis)","https://www.archstl.org/parish-directory/immaculate-heart-of-mary-st-louis","314.481.7543","4092 Blow St., St. Louis, MO 63116-2796",38.56339,-90.275956,1951,"South City","http://www.ihm-stl.org"
"Incarnate Word (Chesterfield)","https://www.archstl.org/parish-directory/incarnate-word-chesterfield","314.576.5366","13416 Olive Blvd., Chesterfield, MO 63017-3196",38.68019,-90.49724,1965,"West County","http://www.incarnate-word.org"
"Little Flower (Richmond Heights)","https://www.archstl.org/parish-directory/little-flower-richmond-heights","314.645.1445","1264 Arch Ter., St. Louis, MO 63117-1491",38.63068,-90.328453,1926,"Mid County","http://www.little-flower-parish.org/"
"Mary, Mother of the Church (Mattese)","https://www.archstl.org/parish-directory/mary-mother-of-the-church-mattese","314.894.1373","5901 Kerth Rd., St. Louis, MO 63128-3705",38.470147,-90.373524,1971,"South County","http://www.marymother.org"
"Mary, Queen of Peace (Webster Groves)","https://www.archstl.org/parish-directory/mary-queen-of-peace-webster-groves","314.962.2311","676 W. Lockwood Ave., St. Louis, MO 63119-3597",38.58422,-90.376608,1922,"Mid County","http://www.mqpwg.org/"
"Most Holy Trinity (St. Louis)","https://www.archstl.org/parish-directory/most-holy-trinity-st-louis","314.241.9165","3519 N. Fourteenth St., St. Louis, MO 63107-3796",38.65974,-90.19796,1848,"North City","http://www.mhtstl.org"
"Most Sacred Heart (Eureka)","https://www.archstl.org/parish-directory/most-sacred-heart-eureka","636.938.5048","350 E. Fourth St., Eureka, MO 63025-1949",38.505454,-90.622276,1889,"West County","http://www.sacredhearteureka.org"
"Old St. Ferdinand Shrine","https://www.archstl.org/parish-directory/old-st-ferdinand-shrine","","1 Rue St. Francois, Florissant, MO 63031-6815",38.7967719,-90.3342515,1819,"North County","http://www.oldstferdinandshrine.com/"
"Oratory of Sts. Gregory and Augustine (Richmond Heights)","https://www.archstl.org/parish-directory/oratory-of-sts-gregory-and-augustine-richmond-heights","314.925.8989","7230 Dale Avenue, St. Louis, MO 63117-2398",38.626956,-90.311857,2007,"Mid County","https://stlouislatinmass.com/"
"Our Lady (Festus)","https://www.archstl.org/parish-directory/our-lady-festus","636.931.4702","1550 St. Marys Ln., Festus, MO 63028-1543",38.2257,-90.415508,1956,"Festus","http://www.ourladyfestus.org"
"Our Lady Help of Christians (Weingarten)","https://www.archstl.org/parish-directory/our-lady-help-of-christians-weingarten","573.883.3796","13370 Highway 32, Ste. Genevieve, MO 63670-8304",37.90411,-90.212522,1872,"Ste. Genevieve",
"Our Lady of Guadalupe (Ferguson)","https://www.archstl.org/parish-directory/our-lady-of-guadalupe-ferguson","314.522.9264","1115 S. Florissant Rd., St. Louis, MO 63121-1198",38.72961,-90.302064,1954,"North County","http://www.guadalupestl.org"
"Our Lady of Lourdes (University City)","https://www.archstl.org/parish-directory/our-lady-of-lourdes-university-city","314.726.6200","7148 Forsyth Blvd., St. Louis, MO 63105-2199",38.64779,-90.319927,1916,"Mid County","http://www.ucitylourdes.org"
"Our Lady of Lourdes (Washington)","https://www.archstl.org/parish-directory/our-lady-of-lourdes-washington","636.239.3520","1014 Madison Ave., Washington, MO 63090-4898",38.54692,-91.002559,1958,"Washington","http://www.ollwashmo.org"
"Our Lady of Providence (Crestwood)","https://www.archstl.org/parish-directory/our-lady-of-providence-crestwood","314.843.3570","8866 Pardee Rd., St. Louis, MO 63123-1096",38.56004,-90.359425,1954,"South County","http://www.olpstl.org"
"Our Lady of Sorrows (St. Louis)","https://www.archstl.org/parish-directory/our-lady-of-sorrows-st-louis","314.351.1600","5020 Rhodes Ave., St. Louis, MO 63109-3589",38.57791,-90.282951,1907,"South City","http://www.olsorrows.org/"
"Our Lady of the Holy Cross (St. Louis)","https://www.archstl.org/parish-directory/our-lady-of-the-holy-cross-st-louis","314.381.0323","8115 Church Rd., St. Louis, MO 63147-1832",38.71029,-90.232024,1993,"North City","http://www.ourladyoftheholycross.com"
"Our Lady of the Pillar (St. Louis)","https://www.archstl.org/parish-directory/our-lady-of-the-pillar-st-louis","314.993.2280","401 S. Lindbergh Blvd., St. Louis, MO 63131-2729",38.64988,-90.405365,1938,"Mid County","http://www.olpillar.com"
"Our Lady of the Presentation (Overland)","https://www.archstl.org/parish-directory/our-lady-of-the-presentation-overland","314.427.0486","8860 Tudor Ave., St. Louis, MO 63114-4998",38.70912,-90.349906,1915,"North County","http://olpchurch.weconnect.com"
"Our Lady of Victory (Sereno)","https://www.archstl.org/parish-directory/our-lady-of-victory-sereno","573.547.4300","172 PCR 920, Perryville, MO 63775-8368",37.79666,-89.85381,1908,"Ste. Genevieve","http://www.svdepaul.org/Our-Lady-of-Victory/Our-Lady-of-Victory-Home/"
"Our Lady, Queen of Peace (House Springs)","https://www.archstl.org/parish-directory/our-lady-queen-of-peace-house-springs","636.671.3062","4696 Notre Dame Ln., House Springs, MO 63051-2045",38.40611,-90.589054,1905,"Festus","http://www.olqpparish.org"
"Queen of All Saints (Oakville)","https://www.archstl.org/parish-directory/queen-of-all-saints-oakville","314.846.8207","6603 Christopher Dr., St. Louis, MO 63129-4919",38.44397,-90.306439,1972,"South County","http://www.qasstl.org/"
"Resurrection of Our Lord (St. Louis)","https://www.archstl.org/parish-directory/resurrection-of-our-lord-st-louis","314.832.7023","3900 Meramec St., St. Louis, MO 63116-4499",38.58441,-90.251066,1930,"South City","http://www.chuaphucsinh.net"
"Sacred Heart (Crystal City)","https://www.archstl.org/parish-directory/sacred-heart-crystal-city","636.937.4662","555 Bailey Rd., Crystal City, MO 63019-1798",38.21917,-90.38693,1881,"Festus","http://sacredheartcrystalcity-festus.weconnect.com"
"Sacred Heart (Elsberry)","https://www.archstl.org/parish-directory/sacred-heart-elsberry","573.898.2202","714 Lincoln St., Elsberry, MO 63343-1125",39.16546,-90.788015,1905,"St. Charles","http://sacredheartelsberry.org"
"Sacred Heart (Florissant)","https://www.archstl.org/parish-directory/sacred-heart-florissant","314.837.3757","751 N. Jefferson St., Florissant, MO 63031-5085",38.794932,-90.326351,1866,"North County","http://www.sacredheartflorissant.org"
"Sacred Heart (Ozora)","https://www.archstl.org/parish-directory/sacred-heart-ozora","573.543.2209","17742 State Rte. N, St. Mary, MO 63673-9035",37.864892,-90.034908,1898,"Ste. Genevieve",
"Sacred Heart (Troy)","https://www.archstl.org/parish-directory/sacred-heart-troy","636.528.8219","100 Thompson Dr., Troy, MO 63379-2321",38.98167,-90.964142,1891,"St. Charles","http://www.sacredhearttroy.org"
"Sacred Heart (Valley Park)","https://www.archstl.org/parish-directory/sacred-heart-valley-park","636.225.5268","17 Ann Ave., Valley Park, MO 63088-1696",38.551695,-90.492177,1903,"West County","http://sacredheartvp.org/"
"Seven Holy Founders (Affton)","https://www.archstl.org/parish-directory/seven-holy-founders-affton","314.638.3938","6741 S. Rockhill Rd., St. Louis, MO 63123-3198",38.552842,-90.333439,1927,"South County","http://www.foundersaffton.org"
"St. Agatha (St. Louis)","https://www.archstl.org/parish-directory/st-agatha-st-louis","314.772.1603","3239 S. Ninth St., St. Louis, MO 63118-2697",38.59439,-90.213932,1871,"South City","http://www.polishchurchstlouis.org"
"St. Agnes (Bloomsdale)","https://www.archstl.org/parish-directory/st-agnes-bloomsdale","573.483.2555","40 St. Agnes Dr., P.O. Box 124, Bloomsdale, MO 63627-0124",38.006782,-90.222338,1848,"Ste. Genevieve","http://www.stagnesandstlawrence.org"
"St. Alban Roe (Wildwood)","https://www.archstl.org/parish-directory/st-alban-roe-wildwood","636.458.2977","2001 Shepard Rd., Wildwood, MO 63038-1360",38.60094,-90.640147,1980,"West County","http://www.stalbanroe.org/"
"St. Alphonsus (Millwood)","https://www.archstl.org/parish-directory/st-alphonsus-millwood","573.384.6223","29 St. Alphonsus Rd., Silex, MO 63377-3217",39.10319,-91.106104,1850,"St. Charles",
"St. Alphonsus Liguori (Rock) (St. Louis)","https://www.archstl.org/parish-directory/st-alphonsus-liguori-rock-st-louis","314.533.0304","1118 N. Grand Blvd., St. Louis, MO 63106-1696",38.6436,-90.228603,1872,"North City","http://www.stalphonsusrock.org"
"St. Ambrose (St. Louis)","https://www.archstl.org/parish-directory/st-ambrose-st-louis","314.771.1228","5130 Wilson Ave., St. Louis, MO 63110-3110",38.61557,-90.271593,1903,"South City","http://www.stambroseonthehill.com"
"St. Andrew (Lemay)","https://www.archstl.org/parish-directory/st-andrew-lemay","314.631.0691","309 Hoffmeister Ave., St. Louis, MO 63125-1609",38.5342,-90.276305,1905,"South County","http://www.saintandrewlemay.org"
"St. Andrew Kim (University City)","https://www.archstl.org/parish-directory/st-andrew-kim-university-city","314.993.1277","8665 Olive Blvd., St. Louis, MO 63132-2586",38.67406,-90.35995,2001,"Mid County",
"St. Angela Merici (Florissant)","https://www.archstl.org/parish-directory/st-angela-merici-florissant","314.838.6565","3860 N. Highway 67, Florissant, MO 63034-2427",38.81473,-90.284457,1962,"North County","http://www.saintangelamerici.org/"
"St. Ann (Clover Bottom)","https://www.archstl.org/parish-directory/st-ann-clover-bottom","636.239.3222","7851 Highway YY, Washington, MO 63090-4050",38.502926,-91.118113,1883,"Washington","http://stannchurchcloverbottom.org"
"St. Ann (Normandy)","https://www.archstl.org/parish-directory/st-ann-normandy","314.385.5090","7530 Natural Bridge Rd., St. Louis, MO 63121-4993",38.70505,-90.299426,1856,"North County","http://www.stannchurch-stl.org/"
"St. Anne (French Village)","https://www.archstl.org/parish-directory/st-anne-french-village","573.358.2112","C/O 15 St. Joseph St., Bonne Terre, MO 63628-1294",37.973195,-90.388823,1828,"Ste. Genevieve","http://saintjosephchurch.org/st-anne-church"
"St. Anselm (Creve Coeur)","https://www.archstl.org/parish-directory/st-anselm-creve-coeur","314.878.2120","530 S. Mason Rd., St. Louis, MO 63141-8522",38.64672,-90.482129,1966,"West County","http://www.stanselmstl.org"
"St. Anthony (Sullivan)","https://www.archstl.org/parish-directory/st-anthony-sullivan","573.468.6101","201 W. Springfield Rd., Sullivan, MO 63080-1550",38.213744,-91.163848,1891,"Washington","http://www.stanthonysullivan.com"
"St. Anthony of Padua (High Ridge)","https://www.archstl.org/parish-directory/st-anthony-of-padua-high-ridge","636.677.4868","3009 High Ridge Blvd., High Ridge, MO 63049-2216",38.458179,-90.536064,1921,"Festus","http://www.stanthonyhr.org"
"St. Anthony of Padua (St. Louis)","https://www.archstl.org/parish-directory/st-anthony-of-padua-st-louis","314.353.7470","3140 Meramec St., St. Louis, MO 63118-4399",38.58029,-90.238956,1863,"South City","http://www.stanthonyofpaduastl.com"
"St. Augustine (St. Louis)","https://www.archstl.org/parish-directory/st-augustine-st-louis","314.385.1934","1371 Hamilton Ave., St. Louis, MO 63112-3751",38.67016,-90.284854,1992,"North City","http://www.st-augustine-stl.org"
"St. Barnabas (OFallon)","https://www.archstl.org/parish-directory/st-barnabas-ofallon","636.240.4556","1400 N. Main St., O'Fallon, MO 63366-4321",38.830281,-90.699476,1961,"St. Charles","http://www.stbarnabasofallon.org"
"St. Bernadette (Lemay)","https://www.archstl.org/parish-directory/st-bernadette-lemay","314.892.6882","68 Sherman Rd., St. Louis, MO 63125-4125",38.505116,-90.285105,1947,"South County","http://www.churchofsaintbernadette.org"
"St. Bridget of Kildare (Pacific)","https://www.archstl.org/parish-directory/st-bridget-of-kildare-pacific","636.271.3993","111 W. Union St., Pacific, MO 63069-1414",38.48309,-90.741629,1841,"Washington","http://www.sbkparish.org"
"St. Catherine Laboure (Sappington)","https://www.archstl.org/parish-directory/st-catherine-laboure-sappington","314.843.3245","9740 Sappington Rd., St. Louis, MO 63128-1293",38.5272,-90.380148,1953,"South County","http://www.sclparish.org"
"St. Catherine of Alexandria (Coffman)","https://www.archstl.org/parish-directory/st-catherine-of-alexandria-coffman","573.756.4250","23496 State Route WW, Ste. Genevieve, MO 63670-3132",37.782708,-90.19469,1887,"Ste. Genevieve",
"St. Cecilia (St. Louis)","https://www.archstl.org/parish-directory/st-cecilia-st-louis","314.351.1318","5418 Louisiana Ave., St. Louis, MO 63111-1897",38.56916,-90.25079,1907,"South City","http://www.stceciliaparishstl.org/"
"St. Charles Borromeo (St. Charles)","https://www.archstl.org/parish-directory/st-charles-borromeo-st-charles","636.946.1893","601 N. Fourth St., St. Charles, MO 63301-2093",38.78744,-90.482201,1792,"St. Charles","http://www.borromeoparish.com"
"St. Clare (St. Clair)","https://www.archstl.org/parish-directory/st-clare-st-clair","636.629.0315","165 E. Springfield Rd., St. Clair, MO 63077-1727",38.3422,-90.985756,1857,"Washington","http://stclarecatholic.org/"
"St. Clare of Assisi (Ellisville)","https://www.archstl.org/parish-directory/st-clare-of-assisi-ellisville","636.394.7307","15642 Clayton Rd., Ellisville, MO 63011-2398",38.60488,-90.582826,1963,"West County","http://www.saintclareofassisi.org"
"St. Clement of Rome (Des Peres)","https://www.archstl.org/parish-directory/st-clement-of-rome-des-peres","314.965.0709","1510 Bopp Rd., St. Louis, MO 63131-4137",38.60875,-90.434534,1952,"Mid County","http://www.stclementcatholicchurch.org"
"St. Cletus (St. Charles)","https://www.archstl.org/parish-directory/st-cletus-st-charles","636.946.6327","2705 Zumbehl Rd., St. Charles, MO 63301-1135",38.80097,-90.535427,1965,"St. Charles","http://www.saintcletus.org/"
"St. Cronan (St. Louis)","https://www.archstl.org/parish-directory/st-cronan-st-louis","314.289.9384","1202 S. Boyle Ave., St. Louis, MO 63110-3894",38.62636,-90.253976,1878,"South City","http://www.stcronan.org"
"St. David (Arnold)","https://www.archstl.org/parish-directory/st-david-arnold","636.296.5485","2334 Tenbrook Rd., Arnold, MO 63010-2366",38.44172,-90.362523,1963,"Festus","http://www.stdavidarnold.org/"
"St. Elizabeth Ann Seton (St. Charles)","https://www.archstl.org/parish-directory/st-elizabeth-ann-seton-st-charles","636.946.6717","2 Seton Ct., St. Charles, MO 63303-3362",38.77677,-90.541957,1975,"St. Charles","http://www.setonscene.org"
"St. Elizabeth of Hungary (Crestwood)","https://www.archstl.org/parish-directory/st-elizabeth-of-hungary-crestwood","314.968.0760","1420 S. Sappington Rd., St. Louis, MO 63126-1699",38.56084,-90.385928,1956,"South County","http://www.stelizabethhungary.org/"
"St. Elizabeth, Mother of John the Baptist (St. Louis)","https://www.archstl.org/parish-directory/st-elizabeth-mother-of-john-the-baptist-st-louis","314.381.4145","4330 Shreve Ave., St. Louis, MO 63115-2199",38.68154,-90.24007,1994,"North City",
"St. Ferdinand (Florissant)","https://www.archstl.org/parish-directory/st-ferdinand-florissant","314.837.3165","1765 Charbonier Rd., Florissant, MO 63031-5497",38.80585,-90.353806,1788,"North County","http://www.stferdinandstl.org"
"St. Francis Borgia (Washington)","https://www.archstl.org/parish-directory/st-francis-borgia-washington","636.239.6701","115 Cedar St., Washington, MO 63090-2193",38.5611,-91.014248,1834,"Washington","http://www.borgiaparish.org"
"St. Francis De Sales Oratory (St. Louis)","https://www.archstl.org/parish-directory/st-francis-de-sales-oratory-st-louis","314.771.3100","2653 Ohio Ave., St. Louis, MO 63118-1594",38.60523,-90.225341,1867,"South City","http://www.institute-christ-king.org"
"St. Francis of Assisi (Luebbering)","https://www.archstl.org/parish-directory/st-francis-of-assisi-luebbering","636.629.1717","1000 Luebbering Rd., Luebbering, MO 63061-3100",38.270383,-90.819392,1874,"Festus",
"St. Francis of Assisi (Oakville)","https://www.archstl.org/parish-directory/st-francis-of-assisi-oakville","314.487.5736","4556 Telegraph Rd., St. Louis, MO 63129-3397",38.4801,-90.304455,1927,"South County","http://www.sfastl.org"
"St. Francis of Assisi (Portage des Sioux)","https://www.archstl.org/parish-directory/st-francis-of-assisi-portage-des-sioux","314.482.6084","1355 Farnham St., Portage Des Sioux, MO 63373-0129",38.92559,-90.343999,1799,"St. Charles",
"St. Francis Xavier (College Church) (St. Louis)","https://www.archstl.org/parish-directory/st-francis-xavier-college-church-st-louis","314.977.7300","3628 Lindell Blvd., St. Louis, MO 63108-3394",38.63746,-90.233809,1841,"North City","http://www.slu.edu/college-church"
"St. Gabriel the Archangel (St. Louis)","https://www.archstl.org/parish-directory/st-gabriel-the-archangel-st-louis","314.353.6303","6303 Nottingham Ave., St. Louis, MO 63109-3177",38.58708,-90.298945,1934,"South City","http://www.stgabrielstl.org"
"St. Gerald","https://www.archstl.org/parish-directory/st-gerald","573.459.6441","c/o 124 Holy Family Church Rd., New Haven, MO 63068",38.404446,-91.325746,1953,"Washington",
"St. Gerard Majella (Kirkwood)","https://www.archstl.org/parish-directory/st-gerard-majella-kirkwood","314.965.3985","1969 Dougherty Ferry Rd., St. Louis, MO 63122-3538",38.5855,-90.439825,1955,"Mid County","http://www.sgmparish.org"
"St. Gertrude (Krakow)","https://www.archstl.org/parish-directory/st-gertrude-krakow","636.239.4216","6535 Highway YY, Washington, MO 63090-4074",38.49733,-91.048331,1845,"Washington","http://stgertrudechurch.org"
"St. Gianna (Wentzville)","https://www.archstl.org/parish-directory/st-gianna-wentzville","636.327.3639","450 E. Highway N, Wentzville, MO 63385-5905",38.767335,-90.848587,2006,"St. Charles","http://www.stgiannaparish.org/"
"St. Ignatius Loyola (Concord Hill)","https://www.archstl.org/parish-directory/st-ignatius-loyola-concord-hill","636.932.4445","19127 Mill Rd., Marthasville, MO 63357-3096",38.64844,-91.140928,1857,"Washington","http://www.saintig.com"
"St. James (Catawissa)","https://www.archstl.org/parish-directory/st-james-catawissa","636.451.4685","1107 Summit Dr., Catawissa, MO 63015-1404",38.42741,-90.784892,1843,"Washington","https://www.stmarys-moselle.com/"
"St. James (Crosstown)","https://www.archstl.org/parish-directory/st-james-crosstown","573.547.4300","Administered from St. Vincent de Paul (Perryville), C/O 1010 Rosati Ct.",37.742279,-89.728198,1890,"Ste. Genevieve","http://www.svdepaul.org/St.-James/St.-James-Home/"
"St. James (Potosi)","https://www.archstl.org/parish-directory/st-james-potosi","573.438.4686","201 N. Missouri Ave., Potosi, MO 63664-1745",37.9371,-90.786996,1829,"Ste. Genevieve","http://www.stjamespotosi.org"
"St. James the Greater (St. Louis)","https://www.archstl.org/parish-directory/st-james-the-greater-st-louis","314.645.0167","6401 Wade Ave., St. Louis, MO 63139-3497",38.62542,-90.293526,1860,"South City","http://www.stjamesthegreater.org"
"St. Joachim (Old Mines)","https://www.archstl.org/parish-directory/st-joachim-old-mines","573.438.6181","10120 Crest Rd., Cadet, MO 63630-9629",38.01557,-90.757027,1822,"Ste. Genevieve","http://www.stjoachim.org"
"St. Joan of Arc (St. Louis)","https://www.archstl.org/parish-directory/st-joan-of-arc-st-louis","314.832.2838","5800 Oleatha Ave., St. Louis, MO 63139-1979",38.59742,-90.290981,1940,"South City","http://www.stjoanofarcstl.com/"
"St. John Bosco (Creve Coeur)","https://www.archstl.org/parish-directory/st-john-bosco-creve-coeur","314.434.1312","12934 Marine Ave., St. Louis, MO 63146-2234",38.70679,-90.473085,1972,"West County","http://www.stjohnboscostl.com"
"St. John Nepomuk Chapel (St. Louis)","https://www.archstl.org/parish-directory/st-john-nepomuk-chapel-st-louis","314.231.0141","1625 S. Eleventh St., St. Louis, MO 63104-3705",38.61254,-90.205028,1854,"South City","https://www.facebook.com/SaintJohnNepomuk/"
"St. John Paul II (Affton)","https://www.archstl.org/parish-directory/st-john-paul-ii-affton","314.353.7629","4980 Heege Road, St. Louis, MO 63123-4791",38.55847,-90.302034,2018,"South County","http://www.stjpstl.org/"
"St. John the Apostle (Bismarck)","https://www.archstl.org/parish-directory/st-john-the-apostle-bismarck","573.431.2427","P.O. Box 66, Park Hills, MO 63601-0066",37.76658,-90.62783,1879,"Ste. Genevieve","http://www.icsja.org/ "
"St. John the Baptist (Gildehaus)","https://www.archstl.org/parish-directory/st-john-the-baptist-gildehaus","636.583.2488","5567 Gildehaus Rd., Villa Ridge, MO 63089-1228",38.484643,-90.940725,1839,"Washington","https://sjg-parish.org/"
"St. John the Baptist (St. Louis)","https://www.archstl.org/parish-directory/st-john-the-baptist-st-louis","314.353.1255","4200 Delor St., St. Louis, MO 63116-2388",38.58019,-90.264385,1914,"South City","http://www.sjbstl.org"
"St. John the Beloved Disciple (Imperial)","https://www.archstl.org/parish-directory/st-john-the-beloved-disciple-imperial","636.296.8061","4614 Blue Springs Dr., Imperial, MO 63052-1237",38.415249,-90.49299,1869,"Festus","http://www.saintjohnimperial.org/"
"St. John, Apostle and Evangelist (St. Louis)","https://www.archstl.org/parish-directory/st-john-apostle-and-evangelist-st-louis","314.421.3467","15 Plaza Sq., St. Louis, MO 63103-2395",38.630215,-90.203547,1847,"South City","http://www.stjohnapostleandevangelist.org"
"St. Joseph (Apple Creek)","https://www.archstl.org/parish-directory/st-joseph-apple-creek","573.788.2330","138 St. Joseph Ln., Perryville, MO 63775-6242",37.61305,-89.751214,1828,"Ste. Genevieve",
"St. Joseph (Bonne Terre)","https://www.archstl.org/parish-directory/st-joseph-bonne-terre","573.358.2112","15 St. Joseph St., Bonne Terre, MO 63628-1294",37.92442,-90.554738,1873,"Ste. Genevieve","http://saintjosephchurch.org/"
"St. Joseph (Clayton)","https://www.archstl.org/parish-directory/st-joseph-clayton","314.726.1221","106 N. Meramec Ave., St. Louis, MO 63105-3788",38.65199,-90.339431,1842,"Mid County","http://www.stjosephclayton.org"
"St. Joseph (Cottleville)","https://www.archstl.org/parish-directory/st-joseph-cottleville","636.441.0055","1355 Motherhead Rd., St. Charles, MO 63304-7686",38.74319,-90.652256,1873,"St. Charles","http://www.stjoecot.org"
"St. Joseph (Farmington)","https://www.archstl.org/parish-directory/st-joseph-farmington","573.756.4250","10 N. Long St., Farmington, MO 63640-3132",37.78009,-90.415397,1890,"Ste. Genevieve","http://www.stjosephfarmington.com/"
"St. Joseph (Highland)","https://www.archstl.org/parish-directory/st-joseph-highland","573.547.4300","C/O 1010 Rosati Ct., Perryville, MO 63775-2319",37.640266,-89.889401,1870,"Ste. Genevieve","http://www.svdepaul.org/St.-Joseph/St.-Joseph-Home/"
"St. Joseph (Imperial)","https://www.archstl.org/parish-directory/st-joseph-imperial","636.464.1013","6020 Old Antonia Rd., Imperial, MO 63052-2394",38.369073,-90.391009,1905,"Festus","https://www.sjiparish.org/"
"St. Joseph (Josephville)","https://www.archstl.org/parish-directory/st-joseph-josephville","636.332.6676","1390 Josephville Rd., Wentzville, MO 63385-3008",38.84279,-90.796617,1852,"St. Charles","http://www.stjojo.net/"
"St. Joseph (Manchester)","https://www.archstl.org/parish-directory/st-joseph-manchester","636.227.5247","567 St. Joseph Ln., Manchester, MO 63021-5393",38.586954,-90.518847,1865,"West County","http://www.stjoemanchester.org"
"St. Joseph (Neier)","https://www.archstl.org/parish-directory/st-joseph-neier","636.583.2806","2401 Neier Rd., Union, MO 63084-3411",38.39003,-91.109262,1881,"Washington","http://stjosephneier.com/"
"St. Joseph (Tiff)","https://www.archstl.org/parish-directory/st-joseph-tiff","573.438.6181","C/O 10120 Crest Rd., Cadet, MO 63630-9717",38.0179,-90.65248,1905,"Ste. Genevieve",
"St. Joseph (Zell)","https://www.archstl.org/parish-directory/st-joseph-zell","573.883.3481","11824 Zell Rd., Ste. Genevieve, MO 63670-8025",37.95127,-90.14483,1845,"Ste. Genevieve","http://www.stjosephzell.org/"
"St. Joseph, Shrine of (St. Louis)","https://www.archstl.org/parish-directory/st-joseph-shrine-of-st-louis","314.231.9407","1220 N. Eleventh St., St. Louis, MO 63106-4614",38.637307,-90.192552,1844,"North City","http://www.shrineofstjoseph.org"
"St. Joseph-Croatian (St. Louis)","https://www.archstl.org/parish-directory/st-joseph-croatian-st-louis","314.771.0958","2112 S. Twelfth St., St. Louis, MO 63104-4129",38.607626,-90.209733,1904,"South City","http://www.stjosephcroatiancatholicchurch.com/"
"St. Jude (Overland)","https://www.archstl.org/parish-directory/st-jude-overland","314.428.2262","2218 N. Warson Rd., St. Louis, MO 63114-2025",38.69781,-90.399184,1953,"North County","http://stjudecatholicchurchstl.org"
"St. Justin Martyr (Sunset Hills)","https://www.archstl.org/parish-directory/st-justin-martyr-sunset-hills","314.843.8482","11910 Eddie and Park Rd., St. Louis, MO 63126-2908",38.544567,-90.39024,1964,"South County","http://www.stjustinmartyr.org/"
"St. Lawrence (Lawrenceton)","https://www.archstl.org/parish-directory/st-lawrence-lawrenceton","573.483.2555","C/O 40 St. Agnes Dr., P.O. Box 124",37.965181,-90.304956,1872,"Ste. Genevieve","http://www.stagnesandstlawrence.org"
"St. Louis Byzantine (Ruthenian) Church Byzantine Eparchy of Parma","https://www.archstl.org/parish-directory/st-louis-byzantine-ruthenian-church-byzantine-eparchy-of-parma","314.434.4211","320 E. Ripa Ave., St. Louis, MO 63123",38.523224,-90.272365,0,"Unknown","http://www.stlouis.byzcath.org"
"St. Luke the Evangelist (Richmond Heights)","https://www.archstl.org/parish-directory/st-luke-the-evangelist-richmond-heights","314.644.2144","7230 Dale Ave., St. Louis, MO 63117-2398",38.62716,-90.311256,1914,"Mid County","http://www.stlukestl.org"
"St. Margaret Mary Alacoque (Mehlville)","https://www.archstl.org/parish-directory/st-margaret-mary-alacoque-mehlville","314.487.2522","4900 Ringer Rd., St. Louis, MO 63129-1797",38.48704,-90.328765,1962,"South County","https://www.smmaparish.org/"
"St. Margaret of Scotland (St. Louis)","https://www.archstl.org/parish-directory/st-margaret-of-scotland-st-louis","314.776.0363","3854 Flad Ave., St. Louis, MO 63110-4024",38.61174,-90.244648,1900,"South City","http://www.stmargaretstl.org"
"St. Mark","https://www.archstl.org/parish-directory/st-mark","314.743.8600","4200 Ripa Ave., St. Louis, MO 63125-6815",38.535243,-90.305878,2003,"South County","http://www.stmarkstl.com"
"St. Martin De Porres (Hazelwood)","https://www.archstl.org/parish-directory/st-martin-de-porres-hazelwood","314.895.1100","615 Dunn Rd., Hazelwood, MO 63042-1725",38.78105,-90.369494,1962,"North County","http://www.stmartindeporresstl.com"
"St. Martin of Tours (Lemay)","https://www.archstl.org/parish-directory/st-martin-of-tours-lemay","314.544.5664","610 W. Ripa Ave., St. Louis, MO 63125-2524",38.52421,-90.287194,1939,"South County","http://www.stmartinoftours.com/"
"St. Mary (Hawk Point)","https://www.archstl.org/parish-directory/st-mary-hawk-point","636.338.4331","P.O. Box 205, Hawk Point, MO 63349-0205",38.97657,-91.121067,1919,"St. Charles",
"St. Mary Magdalen (Brentwood)","https://www.archstl.org/parish-directory/st-mary-magdalen-brentwood","314.961.8400","2618 Brentwood Blvd., St. Louis, MO 63144-2319",38.61343,-90.3491,1912,"Mid County","http://www.stmmchurch.com/"
"St. Mary Magdalen (St. Louis)","https://www.archstl.org/parish-directory/st-mary-magdalen-st-louis","314.352.2111","4924 Bancroft Ave., St. Louis, MO 63109-2499",38.58953,-90.275029,1919,"South City","http://www.magdalen.org/"
"St. Mary of Perpetual Help (Moselle)","https://www.archstl.org/parish-directory/st-mary-of-perpetual-help-moselle","636.451.4685","1587 Highway AM, Villa Ridge, MO 63089-2732",38.421957,-90.88794,1905,"Washington","http://www.stmarys-moselle.com/"
"St. Mary of Victories Chapel (St. Louis)","https://www.archstl.org/parish-directory/st-mary-of-victories-chapel-st-louis","314.231.8101","744 South 3rd Street, St. Louis, MO 63102-1645",38.61826,-90.190541,1843,"South City","http://www.smov.info"
"St. Mary's Assumption Ukrainian Catholic Church","https://www.archstl.org/parish-directory/st-marys-assumption-ukrainian-catholic-church","314.303.2893","11363 Oak Branch Dr., St. Louis, MO 63128",38.61847,-90.2091183,1970,"None","http://www.esnucc.org/node/29"
"St. Matthew the Apostle (St. Louis)","https://www.archstl.org/parish-directory/st-matthew-the-apostle-st-louis","314.531.6443","2715 N. Sarah St., St. Louis, MO 63113-2940",38.65876,-90.232387,1893,"North City","http://www.stmatthewtheapostle.org"
"St. Matthias (Lemay)","https://www.archstl.org/parish-directory/st-matthias-lemay","314.892.5109","796 Buckley Rd., St. Louis, MO 63125-5348",38.5101,-90.30843,1959,"South County","http://www.stmatthiastheapostle.org"
"St. Maurus (Biehle)","https://www.archstl.org/parish-directory/st-maurus-biehle","573.788.2330","10198 Highway B, Perryville, MO 63775-5736",37.61748,-89.837257,1870,"Ste. Genevieve",
"St. Michael the Archangel (Shrewsbury)","https://www.archstl.org/parish-directory/st-michael-the-archangel-shrewsbury","314.647.5611","7622 Sutherland Ave., St. Louis, MO 63119-2895",38.59411,-90.329255,1895,"Mid County","http://www.stmike.org/"
"St. Monica (Creve Coeur)","https://www.archstl.org/parish-directory/st-monica-creve-coeur","314.434.4211","12136 Olive Blvd., St. Louis, MO 63141-6629",38.67248,-90.451186,1872,"West County","http://www.stmonicastl.org"
"St. Nicholas (St. Louis)","https://www.archstl.org/parish-directory/st-nicholas-st-louis","314.231.2860","701 N. 18th St., St. Louis, MO 63103-1727",38.63405,-90.204557,1865,"North City","http://stnickscatholicchurch.com"
"St. Norbert (Florissant)","https://www.archstl.org/parish-directory/st-norbert-florissant","314.831.3874","16455 New Halls Ferry Rd., Florissant, MO 63031-1199",38.84002,-90.318891,1965,"North County","http://www.saintnorbert.com"
"St. Patrick (Armagh)","https://www.archstl.org/parish-directory/st-patrick-armagh","636.271.6038","C/O 1107 Summit Dr., Catawissa, MO 63015-1404",38.403429,-90.744925,1843,"Washington","http://www.stpatricksorc.org/ "
"St. Patrick (Wentzville)","https://www.archstl.org/parish-directory/st-patrick-wentzville","636.332.9225","405 S. Church St., Wentzville, MO 63385-1606",38.80913,-90.853948,1905,"St. Charles","http://www.stpatrickwentzville.org"
"St. Paul (Berger)","https://www.archstl.org/parish-directory/st-paul-berger","573.237.3372","C/O 603 Miller St., New Haven, MO 63068-1116",38.673118,-91.339924,1858,"Washington",
"St. Paul (Fenton)","https://www.archstl.org/parish-directory/st-paul-fenton","636.343.1234","15 Forest Knoll Dr., Fenton, MO 63026-3105",38.5164,-90.448832,1907,"South County","http://www.stpaulfenton.org/"
"St. Paul (St. Paul)","https://www.archstl.org/parish-directory/st-paul-st-paul","636.978.1900","1223 Church Rd., O'Fallon, MO 63366-5105",38.86185,-90.743815,1849,"St. Charles","http://www.st-paulchurch.org/"
"St. Peter (Kirkwood)","https://www.archstl.org/parish-directory/st-peter-kirkwood","314.966.8600","243 W. Argonne Dr., Kirkwood, MO 63122-4295",38.58124,-90.409612,1832,"Mid County","http://www.stpeterkirkwood.org"
"St. Peter (St. Charles)","https://www.archstl.org/parish-directory/st-peter-st-charles","636.946.6641","221 First Capitol Dr., St. Charles, MO 63301-3413",38.77979,-90.484822,1850,"St. Charles","http://www.stpstc.org"
"St. Pius V (St. Louis)","https://www.archstl.org/parish-directory/st-pius-v-st-louis","314.772.1525","3310 S. Grand Blvd., St. Louis, MO 63118-1089",38.59699,-90.243126,1905,"South City","http://www.stpiusv.org"
"St. Raphael the Archangel (St. Louis)","https://www.archstl.org/parish-directory/st-raphael-the-archangel-st-louis","314.352.8100","6047 Bishops Pl., St. Louis, MO 63109-3398",38.57632,-90.301567,1950,"South City","http://www.straphaelarchangel.org/"
"St. Raymond's Cathedral","https://www.archstl.org/parish-directory/st-raymonds-cathedral","314.621.0056","931 Lebanon Drive, St. Louis, MO 63104",38.61716,-90.199406,1912,"Unknown","http://straymondsmaronitecathedral.com/"
"St. Richard (Creve Coeur)","https://www.archstl.org/parish-directory/st-richard-creve-coeur","314.432.6224","11223 Schuetz Rd., St. Louis, MO 63146-4932",38.68452,-90.417367,1963,"Mid County","http://www.strichardstl.org"
"St. Rita (Vinita Park)","https://www.archstl.org/parish-directory/st-rita-vinita-park","314.428.4845","8240 Washington St., St. Louis, MO 63114-6298",38.68467,-90.334532,1914,"North County","http://www.stritacatholicchurch.org"
"St. Robert Bellarmine (St. Charles)","https://www.archstl.org/parish-directory/st-robert-bellarmine-st-charles","636.946.6799","1424 S. First Capitol Dr., St. Charles, MO 63303-3799",38.77605,-90.513678,1963,"St. Charles","http://www.strbellarmine.com/"
"St. Roch (St. Louis)","https://www.archstl.org/parish-directory/st-roch-st-louis","314.721.6340","6052 Waterman Blvd., St. Louis, MO 63112-1399",38.65043,-90.295618,1911,"South City","http://www.strochparish.com/ "
"St. Rose of Lima (DeSoto)","https://www.archstl.org/parish-directory/st-rose-of-lima-desoto","636.337.2212","504 S. Third St., Desoto, MO 63020-2097",38.13558,-90.557477,1866,"Festus","http://www.stroseparish.info"
"St. Rose of Lima (Silver Lake)","https://www.archstl.org/parish-directory/st-rose-of-lima-silver-lake","573.547.4300","c/o 1010 Rosati Ct., Perryville, MO 63775-2319",37.684134,-89.990408,1855,"Ste. Genevieve","http://www.svdepaul.org/St.-Rose-of-Lima/St.-Rose-of-Lima-Home/"
"St. Rose Philippine Duchesne (Florissant)","https://www.archstl.org/parish-directory/st-rose-philippine-duchesne-florissant","314.837.3410","1210 Paddock Dr., Florissant, MO 63033-3547",38.79436,-90.306491,2005,"North County","http://www.strpdparish.org"
"St. Sabina (Florissant)","https://www.archstl.org/parish-directory/st-sabina-florissant","314.837.1365","1365 Harkee Dr., Florissant, MO 63031-3434",38.81423,-90.342862,1960,"North County","http://www.stsabina.com/"
"St. Simon the Apostle (Green Park)","https://www.archstl.org/parish-directory/st-simon-the-apostle-green-park","314.842.3848","11011 Mueller Rd., St. Louis, MO 63123-6997",38.52368,-90.345574,1959,"South County","http://www.stsimonchurch.org"
"St. Stephen (Richwoods)","https://www.archstl.org/parish-directory/st-stephen-richwoods","573.678.2207","11514 Highway A, P.O. Box 233, Richwoods, MO 63071-0233",38.156663,-90.838088,1841,"Festus","http://www.ststephenrichwoodsmo.com"
"St. Stephen Protomartyr (St. Louis)","https://www.archstl.org/parish-directory/st-stephen-protomartyr-st-louis","314.481.1133","3949 Wilmington Ave., St. Louis, MO 63116-3291",38.56934,-90.262972,1926,"South City","http://www.saintstephenstl.org"
"St. Theodore (Flint Hill)","https://www.archstl.org/parish-directory/st-theodore-flint-hill","636.332.9269","5085 Hwy P, Wentzville, MO 63385",38.85497,-90.863187,1883,"St. Charles","http://www.sainttheodore.org"
"St. Vincent de Paul (Dutzow)","https://www.archstl.org/parish-directory/st-vincent-de-paul-dutzow","636.433.2678","13497 S. State Highway 94, Marthasville, MO 63357-2686",38.60205,-91.009209,1856,"Washington","http://www.svdutzow.org"
"St. Vincent de Paul (Perryville)","https://www.archstl.org/parish-directory/st-vincent-de-paul-perryville","573.547.4300","1010 Rosati Ct., Perryville, MO 63775-2319",37.72427,-89.875377,1817,"Ste. Genevieve","http://www.svdepaul.org"
"St. Vincent de Paul (St. Louis)","https://www.archstl.org/parish-directory/st-vincent-de-paul-st-louis","314.231.9328","1408 S. Tenth St., St. Louis, MO 63104-3725",38.61374,-90.201237,1841,"South City","http://www.stvstl.org"
"St. Wenceslaus (St. Louis)","https://www.archstl.org/parish-directory/st-wenceslaus-st-louis","314.865.1020","3014 Oregon Ave., St. Louis, MO 63118-1412",38.60133,-90.229621,1895,"South City","http://stwenceslaus.website/"
"Ste. Genevieve (Ste. Genevieve)","https://www.archstl.org/parish-directory/ste-genevieve-ste-genevieve","573.883.2731","20 N. Fourth St., Ste. Genevieve, MO 63670-1697",37.97917,-90.04668,1759,"Ste. Genevieve","http://stegenevieveparish.com"
"Ste. Genevieve du Bois (Warson Woods)","https://www.archstl.org/parish-directory/ste-genevieve-du-bois-warson-woods","314.966.3780","1575 N. Woodlawn Ave., St. Louis, MO 63122-1462",38.61009,-90.396579,1956,"Mid County","http://www.stegenevievedubois.org/"
"Sts. Joachim and Ann (St. Charles)","https://www.archstl.org/parish-directory/sts-joachim-and-ann-st-charles","636.441.7503","4112 McClay Rd., St. Charles, MO 63304-7918",38.75413,-90.602117,1981,"St. Charles","http://www.stsja.org"
"Sts. Mary and Joseph Chapel (St. Louis)","https://www.archstl.org/parish-directory/sts-mary-and-joseph-chapel-st-louis","314.481.1133","C/O 3949 Wilmington Ave., St. Louis, MO 63116-3291",38.55807,-90.249157,1821,"South City",
"Sts. Peter and Paul (St. Louis)","https://www.archstl.org/parish-directory/sts-peter-and-paul-st-louis","314.231.9923","1919 S. Seventh St., St. Louis, MO 63104-4029",38.60757,-90.202348,1849,"South City","http://www.stspeterandpaulstl.org/"
"Sts. Philip & James (River aux Vases)","https://www.archstl.org/parish-directory/sts-philip-james-river-aux-vases","573.883.3925","18411 RAV Church Rd., Ste. Genevieve, MO 63670-9147",37.87654,-90.123873,1840,"Ste. Genevieve",
"Sts. Teresa & Bridget (St. Louis)","https://www.archstl.org/parish-directory/sts-teresa-bridget-st-louis","314.371.1190","3636 N. Market St., St. Louis, MO 63113-3606",38.65175,-90.224955,2003,"North City","http://www.ststb.org/"